{
  "_updated_at": "2026-04-27T05:26:49Z",
  "_source": "Celestrak GP / GitHub Actions auto-update",
  "_update_interval": "daily at UTC 02:00",
  "_warnings": [],
  "satellites": [
    {
      "name": "SES-12",
      "catnr": 43488,
      "orbit": "GEO",
      "line0": "SES-12",
      "line1": "1 43488U 18049A   26116.94261192  .00000000  00000+0  00000+0 0  9997",
      "line2": "2 43488   0.0143  63.2372 0001016 264.9046 321.1447  1.00272434 28903"
    },
    {
      "name": "SES-14",
      "catnr": 43175,
      "orbit": "GEO",
      "line0": "SES-14",
      "line1": "1 43175U 18012B   26116.41328501 -.00000291  00000+0  00000+0 0  9993",
      "line2": "2 43175   0.0426  52.9389 0000879 336.9700 285.8004  1.00272597  6503"
    },
    {
      "name": "SES-15",
      "catnr": 42709,
      "orbit": "GEO",
      "line0": "SES-15",
      "line1": "1 42709U 17026A   26116.93093403  .00000049  00000+0  00000+0 0  9996",
      "line2": "2 42709   0.0241 326.4455 0000647  44.7047  49.7564  1.00269945  6910"
    },
    {
      "name": "SES-17",
      "catnr": 49332,
      "orbit": "GEO",
      "line0": "SES-17",
      "line1": "1 49332U 21095A   26116.90853418 -.00000283  00000+0  00000+0 0  9994",
      "line2": "2 49332   0.0415  44.0493 0000954 344.7647  86.0657  1.00270722 17348"
    },
    {
      "name": "AMC-9",
      "catnr": 27820,
      "orbit": "GEO",
      "line0": "AMC-9 (GE-12)",
      "line1": "1 27820U 03024A   26116.96691704  .00000070  00000+0  00000+0 0  9991",
      "line2": "2 27820   7.7950  66.3145 0018483 345.0096 218.0055  0.99028847 83486"
    },
    {
      "name": "NSS-12",
      "catnr": 36032,
      "orbit": "GEO",
      "line0": "NSS-12",
      "line1": "1 36032U 09058A   26116.93306094  .00000060  00000+0  00000+0 0  9990",
      "line2": "2 36032   0.0637  62.8811 0005039 310.2956 234.6463  1.00272382 60404"
    },
    {
      "name": "O3b mPOWER F1",
      "catnr": 54755,
      "orbit": "MEO",
      "line0": "O3B MPOWER F1",
      "line1": "1 54755U 22174A   26116.94996102 -.00000027  00000+0  00000+0 0  9996",
      "line2": "2 54755   0.0597 347.2739 0005896  65.6164 268.3717  5.00114858 62790"
    },
    {
      "name": "O3b mPOWER F2",
      "catnr": 54756,
      "orbit": "MEO",
      "line0": "O3B MPOWER F2",
      "line1": "1 54756U 22174B   26116.73822294 -.00000027  00000+0  00000+0 0  9994",
      "line2": "2 54756   0.0562 344.9587 0005939  48.7072 326.3703  5.00115334 62864"
    },
    {
      "name": "O3b mPOWER F3",
      "catnr": 56368,
      "orbit": "MEO",
      "line0": "O3B MPOWER F3",
      "line1": "1 56368U 23059B   26116.83580696 -.00000027  00000+0  00000+0 0  9996",
      "line2": "2 56368   0.0660   2.2695 0006656  35.7627 322.0134  5.00116623 52162"
    },
    {
      "name": "O3b mPOWER F4",
      "catnr": 56367,
      "orbit": "MEO",
      "line0": "O3B MPOWER F4",
      "line1": "1 56367U 23059A   26116.80253732 -.00000027  00000+0  00000+0 0  9990",
      "line2": "2 56367   0.0649   2.5632 0007263  45.1542 312.3427  5.00115899 56039"
    },
    {
      "name": "O3b mPOWER F5",
      "catnr": 58346,
      "orbit": "MEO",
      "line0": "O3B MPOWER F5",
      "line1": "1 58346U 23175A   26116.73664006 -.00000027  00000+0  00000+0 0  9990",
      "line2": "2 58346   0.0448  11.8202 0004476  36.0320 312.1844  5.00115556 46857"
    },
    {
      "name": "O3b mPOWER F6",
      "catnr": 58347,
      "orbit": "MEO",
      "line0": "O3B MPOWER F6",
      "line1": "1 58347U 23175B   26116.83730708 -.00000027  00000+0  00000+0 0  9995",
      "line2": "2 58347   0.0514   6.1130 0004698  20.4284 333.4812  5.00116210 45781"
    }
  ]
}